[{"OBJECT_NAME":"TIANQI-6","OBJECT_ID":"2020-076D","EPOCH":"2026-03-09T22:50:24.728640","MEAN_MOTION":15.06417552,"ECCENTRICITY":0.00106023,"INCLINATION":34.9994,"RA_OF_ASC_NODE":297.1791,"ARG_OF_PERICENTER":9.4595,"MEAN_ANOMALY":350.6312,"EPHEMERIS_TYPE":0,"CLASSIFICATION_TYPE":"U","NORAD_CAT_ID":46810,"ELEMENT_SET_NO":999,"REV_AT_EPOCH":29360,"BSTAR":0.00037023286,"MEAN_MOTION_DOT":5.552e-5,"MEAN_MOTION_DDOT":0},{"OBJECT_NAME":"STARLINK-4084","OBJECT_ID":"2022-053B","EPOCH":"2026-03-09T11:08:16.038528","MEAN_MOTION":15.08819125,"ECCENTRICITY":0.00012351,"INCLINATION":53.217,"RA_OF_ASC_NODE":155.4561,"ARG_OF_PERICENTER":85.5909,"MEAN_ANOMALY":274.5225,"EPHEMERIS_TYPE":0,"CLASSIFICATION_TYPE":"U","NORAD_CAT_ID":52657,"ELEMENT_SET_NO":999,"REV_AT_EPOCH":21137,"BSTAR":8.7318066e-5,"MEAN_MOTION_DOT":1.101e-5,"MEAN_MOTION_DDOT":0}]
